{
  "type": "FeatureCollection",
  "features": [
    {
      "type": "Feature",
      "properties": {
        "norad_id": 34003,
        "name": "COSMOS 2251 DEB",
        "group": "cosmos-2251-debris",
        "lat": -37.90366994839998,
        "lon": -104.09430951040787,
        "alt_km": 844.7396683013267,
        "timestamp": "2025-12-22T11:33:20.833430+00:00",
        "meta_object_name": "COSMOS 2251 DEB",
        "meta_object_id": "1993-036GN",
        "meta_epoch": "2025-12-21T04:31:05.940480",
        "meta_mean_motion": 13.84194066,
        "meta_eccentricity": 0.02749729,
        "meta_inclination": 74.0776,
        "meta_ra_of_asc_node": 270.923,
        "meta_arg_of_pericenter": 21.0006,
        "meta_mean_anomaly": 340.2152,
        "meta_ephemeris_type": 0,
        "meta_classification_type": "U",
        "meta_norad_cat_id": 34003,
        "meta_element_set_no": 999,
        "meta_rev_at_epoch": 84542,
        "meta_bstar": 0.0013455154,
        "meta_mean_motion_dot": 1.989e-05,
        "meta_mean_motion_ddot": 0,
        "tle_line1": "1 34003U 93036GN  25355.18826320  .00001989  00000+0  13455-2 0  9997",
        "tle_line2": "2 34003  74.0776 270.9230 0274972  21.0006 340.2152 13.84194066845428"
      },
      "geometry": {
        "type": "Point",
        "coordinates": [
          -104.09430951040787,
          -37.90366994839998
        ]
      }
    },
    {
      "type": "Feature",
      "properties": {
        "norad_id": 34004,
        "name": "COSMOS 2251 DEB",
        "group": "cosmos-2251-debris",
        "lat": 68.3038121156215,
        "lon": -19.147970366414135,
        "alt_km": 736.651762909185,
        "timestamp": "2025-12-22T11:33:20.833440+00:00",
        "meta_object_name": "COSMOS 2251 DEB",
        "meta_object_id": "1993-036GP",
        "meta_epoch": "2025-12-21T20:17:54.240288",
        "meta_mean_motion": 14.49084288,
        "meta_eccentricity": 0.0033467,
        "meta_inclination": 74.036,
        "meta_ra_of_asc_node": 296.0336,
        "meta_arg_of_pericenter": 307.1928,
        "meta_mean_anomaly": 52.6178,
        "meta_ephemeris_type": 0,
        "meta_classification_type": "U",
        "meta_norad_cat_id": 34004,
        "meta_element_set_no": 999,
        "meta_rev_at_epoch": 88162,
        "meta_bstar": 0.00093962,
        "meta_mean_motion_dot": 3.569e-05,
        "meta_mean_motion_ddot": 0,
        "tle_line1": "1 34004U 93036GP  25355.84576667  .00003569  00000+0  93962-3 0  9995",
        "tle_line2": "2 34004  74.0360 296.0336 0033467 307.1928  52.6178 14.49084288881627"
      },
      "geometry": {
        "type": "Point",
        "coordinates": [
          -19.147970366414135,
          68.3038121156215
        ]
      }
    },
    {
      "type": "Feature",
      "properties": {
        "norad_id": 34005,
        "name": "COSMOS 2251 DEB",
        "group": "cosmos-2251-debris",
        "lat": 40.27763291367528,
        "lon": -150.32010483058428,
        "alt_km": 753.9691340043364,
        "timestamp": "2025-12-22T11:33:20.833450+00:00",
        "meta_object_name": "COSMOS 2251 DEB",
        "meta_object_id": "1993-036GQ",
        "meta_epoch": "2025-12-21T22:34:41.009088",
        "meta_mean_motion": 14.40310551,
        "meta_eccentricity": 0.0021135,
        "meta_inclination": 74.0435,
        "meta_ra_of_asc_node": 196.6477,
        "meta_arg_of_pericenter": 313.328,
        "meta_mean_anomaly": 166.103,
        "meta_ephemeris_type": 0,
        "meta_classification_type": "U",
        "meta_norad_cat_id": 34005,
        "meta_element_set_no": 999,
        "meta_rev_at_epoch": 88511,
        "meta_bstar": 9.4593e-05,
        "meta_mean_motion_dot": 2.74e-06,
        "meta_mean_motion_ddot": 0,
        "tle_line1": "1 34005U 93036GQ  25355.94075242  .00000274  00000+0  94593-4 0  9992",
        "tle_line2": "2 34005  74.0435 196.6477 0021135 313.3280 166.1030 14.40310551885113"
      },
      "geometry": {
        "type": "Point",
        "coordinates": [
          -150.32010483058428,
          40.27763291367528
        ]
      }
    },
    {
      "type": "Feature",
      "properties": {
        "norad_id": 34006,
        "name": "COSMOS 2251 DEB",
        "group": "cosmos-2251-debris",
        "lat": 61.57016828683663,
        "lon": 155.54036187245154,
        "alt_km": 567.1236408395871,
        "timestamp": "2025-12-22T11:33:20.833461+00:00",
        "meta_object_name": "COSMOS 2251 DEB",
        "meta_object_id": "1993-036GR",
        "meta_epoch": "2025-12-21T09:51:01.000800",
        "meta_mean_motion": 14.95286049,
        "meta_eccentricity": 0.00113596,
        "meta_inclination": 74.0537,
        "meta_ra_of_asc_node": 125.8173,
        "meta_arg_of_pericenter": 61.1141,
        "meta_mean_anomaly": 1.8389,
        "meta_ephemeris_type": 0,
        "meta_classification_type": "U",
        "meta_norad_cat_id": 34006,
        "meta_element_set_no": 999,
        "meta_rev_at_epoch": 88798,
        "meta_bstar": 0.0025287679,
        "meta_mean_motion_dot": 0.00027969,
        "meta_mean_motion_ddot": 0,
        "tle_line1": "1 34006U 93036GR  25355.41042825  .00027969  00000+0  25288-2 0  9999",
        "tle_line2": "2 34006  74.0537 125.8173 0011359  61.1141   1.8389 14.95286049887988"
      },
      "geometry": {
        "type": "Point",
        "coordinates": [
          155.54036187245154,
          61.57016828683663
        ]
      }
    },
    {
      "type": "Feature",
      "properties": {
        "norad_id": 34007,
        "name": "COSMOS 2251 DEB",
        "group": "cosmos-2251-debris",
        "lat": 22.14762987177236,
        "lon": -25.15903085180228,
        "alt_km": 669.6513297619604,
        "timestamp": "2025-12-22T11:33:20.833470+00:00",
        "meta_object_name": "COSMOS 2251 DEB",
        "meta_object_id": "1993-036GS",
        "meta_epoch": "2025-12-21T22:20:17.428992",
        "meta_mean_motion": 14.6484608,
        "meta_eccentricity": 0.0044249,
        "meta_inclination": 74.0192,
        "meta_ra_of_asc_node": 329.2023,
        "meta_arg_of_pericenter": 101.1397,
        "meta_mean_anomaly": 259.4751,
        "meta_ephemeris_type": 0,
        "meta_classification_type": "U",
        "meta_norad_cat_id": 34007,
        "meta_element_set_no": 999,
        "meta_rev_at_epoch": 89214,
        "meta_bstar": 0.00066678,
        "meta_mean_motion_dot": 3.583e-05,
        "meta_mean_motion_ddot": 0,
        "tle_line1": "1 34007U 93036GS  25355.93075728  .00003583  00000+0  66678-3 0  9990",
        "tle_line2": "2 34007  74.0192 329.2023 0044249 101.1397 259.4751 14.64846080892143"
      },
      "geometry": {
        "type": "Point",
        "coordinates": [
          -25.15903085180228,
          22.14762987177236
        ]
      }
    },
    {
      "type": "Feature",
      "properties": {
        "norad_id": 34008,
        "name": "COSMOS 2251 DEB",
        "group": "cosmos-2251-debris",
        "lat": 54.90772123500735,
        "lon": -23.240922896126794,
        "alt_km": 782.2179475829589,
        "timestamp": "2025-12-22T11:33:20.833480+00:00",
        "meta_object_name": "COSMOS 2251 DEB",
        "meta_object_id": "1993-036GT",
        "meta_epoch": "2025-12-21T22:09:51.931008",
        "meta_mean_motion": 14.33152377,
        "meta_eccentricity": 0.0024588,
        "meta_inclination": 74.0346,
        "meta_ra_of_asc_node": 313.7338,
        "meta_arg_of_pericenter": 307.48,
        "meta_mean_anomaly": 113.0199,
        "meta_ephemeris_type": 0,
        "meta_classification_type": "U",
        "meta_norad_cat_id": 34008,
        "meta_element_set_no": 999,
        "meta_rev_at_epoch": 88096,
        "meta_bstar": 0.00011199,
        "meta_mean_motion_dot": 2.82e-06,
        "meta_mean_motion_ddot": 0,
        "tle_line1": "1 34008U 93036GT  25355.92351772  .00000282  00000+0  11199-3 0  9997",
        "tle_line2": "2 34008  74.0346 313.7338 0024588 307.4800 113.0199 14.33152377880969"
      },
      "geometry": {
        "type": "Point",
        "coordinates": [
          -23.240922896126794,
          54.90772123500735
        ]
      }
    },
    {
      "type": "Feature",
      "properties": {
        "norad_id": 34009,
        "name": "COSMOS 2251 DEB",
        "group": "cosmos-2251-debris",
        "lat": 72.57621101761427,
        "lon": 73.35013051458537,
        "alt_km": 767.3583709300974,
        "timestamp": "2025-12-22T11:33:20.833491+00:00",
        "meta_object_name": "COSMOS 2251 DEB",
        "meta_object_id": "1993-036GU",
        "meta_epoch": "2025-12-22T04:28:18.328800",
        "meta_mean_motion": 14.33229457,
        "meta_eccentricity": 0.0026864,
        "meta_inclination": 74.0376,
        "meta_ra_of_asc_node": 319.6727,
        "meta_arg_of_pericenter": 26.5364,
        "meta_mean_anomaly": 347.8699,
        "meta_ephemeris_type": 0,
        "meta_classification_type": "U",
        "meta_norad_cat_id": 34009,
        "meta_element_set_no": 999,
        "meta_rev_at_epoch": 88081,
        "meta_bstar": 0.00013328,
        "meta_mean_motion_dot": 3.42e-06,
        "meta_mean_motion_ddot": 0,
        "tle_line1": "1 34009U 93036GU  25356.18632325  .00000342  00000+0  13328-3 0  9996",
        "tle_line2": "2 34009  74.0376 319.6727 0026864  26.5364 347.8699 14.33229457880813"
      },
      "geometry": {
        "type": "Point",
        "coordinates": [
          73.35013051458537,
          72.57621101761427
        ]
      }
    }
  ]
}